SWAS                    
1 25560U 98071A   26068.53487068  .00004636  00000+0  29986-3 0  9991
2 25560  69.8952 124.3662 0004099  14.3215 345.8065 15.08888192482231
STARLINK-3225           
1 49737U 21115P   26068.53896833  .00000901  00000+0  74690-4 0  9996
2 49737  53.2171 149.7979 0001669  90.6292 269.4892 15.08829140235511
